*******************************************************************************
Ephemeris / PORT_LOGIN Sat Nov 26 22:38:51 2011 Pasadena, USA    / Horizons    
*******************************************************************************
Target body name: Saturn (699)                    {source: SAT317}
Center body name: Solar System Barycenter (0)     {source: DE405}
Center-site name: BODY CENTER
*******************************************************************************
Start time      : A.D. 2001-Jan-01 10:00:00.0000 CT 
Stop  time      : A.D. 2001-Jan-02 00:00:00.0000 CT 
Step-size       : 60 minutes
*******************************************************************************
Center geodetic : 0.00000000,0.00000000,0.0000000 {E-lon(deg),Lat(deg),Alt(km)}
Center cylindric: 0.00000000,0.00000000,0.0000000 {E-lon(deg),Dxy(km),Dz(km)}
Center radii    : (undefined)                                                  
Output units    : AU-D                                                         
Output format   : 03
Reference frame : ICRF/J2000.0                                                 
Output type     : GEOMETRIC cartesian states
Coordinate systm: Earth Mean Equator and Equinox of Reference Epoch            
*******************************************************************************
JDCT 
   X     Y     Z
   VX    VY    VZ
   LT    RG    RR
*******************************************************************************
$$SOE
2451910.916666667 = A.D. 2001-Jan-01 10:00:00.0000 (CT)
   4.679012506930731E+00  7.290171089740164E+00  2.809700114297834E+00
  -5.077426267559584E-03  2.560324290137246E-03  1.275800287277970E-03
   5.259660482610903E-02  9.106819823076700E+00 -1.655377733295731E-04
2451910.958333333 = A.D. 2001-Jan-01 11:00:00.0000 (CT)
   4.678800945733765E+00  7.290277767616295E+00  2.809753271688534E+00
  -5.077511180104684E-03  2.560213730707117E-03  1.275754468276001E-03
   5.259656499109271E-02  9.106812925857433E+00 -1.655287740387840E-04
2451911.000000000 = A.D. 2001-Jan-01 12:00:00.0000 (CT)
   4.678589380999565E+00  7.290384440881739E+00  2.809806427170347E+00
  -5.077596056182625E-03  2.560102980257296E-03  1.275708660583714E-03
   5.259652515822626E-02  9.106806029010404E+00 -1.655199041938242E-04
2451911.041666667 = A.D. 2001-Jan-01 13:00:00.0000 (CT)
   4.678377812729440E+00  7.290491109528891E+00  2.809859580743733E+00
  -5.077680906692250E-03  2.559992055120002E-03  1.275662863750014E-03
   5.259648532747952E-02  9.106799132530391E+00 -1.655111564699888E-04
2451911.083333333 = A.D. 2001-Jan-01 14:00:00.0000 (CT)
   4.678166240924153E+00  7.290597773550737E+00  2.809912732409146E+00
  -5.077765746833294E-03  2.559880966978633E-03  1.275617077957155E-03
   5.259644549882343E-02  9.106792236412359E+00 -1.655025292759516E-04
2451911.125000000 = A.D. 2001-Jan-01 15:00:00.0000 (CT)
   4.677954665583770E+00  7.290704432940640E+00  2.809965882167059E+00
  -5.077850594277557E-03  2.559769722645735E-03  1.275571303909600E-03
   5.259640567222863E-02  9.106785340651232E+00 -1.654940260261392E-04
2451911.166666667 = A.D. 2001-Jan-01 16:00:00.0000 (CT)
   4.677743086707615E+00  7.290811087692153E+00  2.810019030017983E+00
  -5.077935466704959E-03  2.559658324312462E-03  1.275525542648217E-03
   5.259636584766451E-02  9.106778445241705E+00 -1.654856537327577E-04
2451911.208333333 = A.D. 2001-Jan-01 17:00:00.0000 (CT)
   4.677531504294326E+00  7.290917737798839E+00  2.810072175962473E+00
  -5.078020378621441E-03  2.559546770386898E-03  1.275479795276569E-03
   5.259632602509856E-02  9.106771550178150E+00 -1.654774207850142E-04
2451911.250000000 = A.D. 2001-Jan-01 18:00:00.0000 (CT)
   4.677319918342073E+00  7.291024383254138E+00  2.810125320001127E+00
  -5.078105337370375E-03  2.559435057050631E-03  1.275434062584943E-03
   5.259628620449636E-02  9.106764655454610E+00 -1.654693337710921E-04
2451911.291666667 = A.D. 2001-Jan-01 19:00:00.0000 (CT)
   4.677108328848951E+00  7.291131024051328E+00  2.810178462134559E+00
  -5.078190338243779E-03  2.559323180675266E-03  1.275388344556612E-03
   5.259624638582257E-02  9.106757761064964E+00 -1.654613931861569E-04
2451911.333333333 = A.D. 2001-Jan-01 20:00:00.0000 (CT)
   4.676896735813604E+00  7.291237660183593E+00  2.810231602363357E+00
  -5.078275358594077E-03  2.559211141253450E-03  1.275342639739627E-03
   5.259620656904301E-02  9.106750867003290E+00 -1.654535878569310E-04
2451911.375000000 = A.D. 2001-Jan-01 21:00:00.0000 (CT)
   4.676685139236111E+00  7.291344291644275E+00  2.810284740688005E+00
  -5.078360350841461E-03  2.559098947012286E-03  1.275296944466226E-03
   5.259616675412825E-02  9.106743973264498E+00 -1.654458879001142E-04
2451911.416666667 = A.D. 2001-Jan-01 22:00:00.0000 (CT)
   4.676473539119192E+00  7.291450918427330E+00  2.810337877108769E+00
  -5.078445234266139E-03  2.558986620390831E-03  1.275251251900659E-03
   5.259612694105920E-02  9.106737079845281E+00 -1.654382360183821E-04
2451911.458333333 = A.D. 2001-Jan-01 23:00:00.0000 (CT)
   4.676261935469789E+00  7.291557540528068E+00  2.810391011625549E+00
  -5.078529885468791E-03  2.558874205577611E-03  1.275205550894931E-03
   5.259608712983483E-02  9.106730186745462E+00 -1.654305369235431E-04
2451911.500000000 = A.D. 2001-Jan-02 00:00:00.0000 (CT)
   4.676050328301057E+00  7.291664157944260E+00  2.810444144237663E+00
  -5.078614127376505E-03  2.558761777818860E-03  1.275159824630626E-03
   5.259604732048296E-02  9.106723293969855E+00 -1.654226446619971E-04
$$EOE
*******************************************************************************
Coordinate system description:

  Earth Mean Equator and Equinox of Reference Epoch

    Reference epoch: J2000.0
    xy-plane: plane of the Earth's mean equator at the reference epoch
    x-axis  : out along ascending node of instantaneous plane of the Earth's
              orbit and the Earth's mean equator at the reference epoch
    z-axis  : along the Earth mean north pole at the reference epoch

Symbol meaning [1 AU=149597870.691 km, 1 day=86400.0 s]:

    JDCT     Epoch Julian Date, Coordinate Time
      X      x-component of position vector (AU)                               
      Y      y-component of position vector (AU)                               
      Z      z-component of position vector (AU)                               
      VX     x-component of velocity vector (AU/day)                           
      VY     y-component of velocity vector (AU/day)                           
      VZ     z-component of velocity vector (AU/day)                           
      LT     One-way down-leg Newtonian light-time (day)                       
      RG     Range; distance from coordinate center (AU)                       
      RR     Range-rate; radial velocity wrt coord. center (AU/day)            

Geometric states/elements have no aberration corrections applied.

 Computations by ...
     Solar System Dynamics Group, Horizons On-Line Ephemeris System
     4800 Oak Grove Drive, Jet Propulsion Laboratory
     Pasadena, CA  91109   USA
     Information: http://ssd.jpl.nasa.gov/
     Connect    : telnet://ssd.jpl.nasa.gov:6775  (via browser)
                  telnet ssd.jpl.nasa.gov 6775    (via command-line)
     Author     : Jon.Giorgini@jpl.nasa.gov
*******************************************************************************
